STARLINK-31960          
1 59931U 24106K   26068.08861213 -.00003721  00000+0 -12580-3 0  9994
2 59931  42.9992 335.6842 0000843 285.8018  74.2740 15.27573360100433
TRANSPORTER-12 OBJECT BT
1 62674U 25009BT  26068.71416991  .00013824  00000+0  51029-3 0  9998
2 62674  97.4094 151.5992 0003682 313.5044  46.5889 15.27872239121360
